SENTINEL 3A
1 41335U 16011A   23147.46837536  .00000126  00000-0  69979-4 0  9997
2 41335  98.6219 214.8234 0001342  98.7044 261.4289 14.26737428378823